NORAD_CAT_ID,OBJECT_NAME,OBJECT_TYPE,EPOCH,MEAN_MOTION,ECCENTRICITY,INCLINATION,RA_OF_ASC_NODE,ARG_OF_PERICENTER,MEAN_ANOMALY,BSTAR,MEAN_MOTION_DOT,MEAN_MOTION_DDOT,TLE_LINE0,TLE_LINE1,TLE_LINE2,SEMIMAJOR_AXIS,PERIOD,APOGEE,PERIGEE,DECAYED
53019.0,STARLINK-4282,PAYLOAD,2024-08-14 21:23:28,15.08855416,0.0001355,53.2159,131.0244,86.1865,273.9282,0.00067305,0.00010444,0.0,0 STARLINK-4282,1 53019U 22076AK  24227.89129876  .00010444  00000-0  67305-3 0  9999,2 53019  53.2159 131.0244 0001355  86.1865 273.9282 15.08855416116664,6917.833,95.437,540.636,538.761,0.0
53019.0,STARLINK-4282,PAYLOAD,2024-08-15 00:34:14,15.08868055,0.0001379,53.2151,130.4311,81.2995,278.8154,0.0010531,0.00016525,0.0,0 STARLINK-4282,1 53019U 22076AK  24228.02377722  .00016525  00000-0  10531-2 0  9994,2 53019  53.2151 130.4311 0001379  81.2995 278.8154 15.08868055117150,6917.795,95.436,540.614,538.706,0.0
53019.0,STARLINK-4282,PAYLOAD,2024-08-15 10:06:32,15.08869413,9.22e-05,53.2153,128.6446,44.4472,315.6594,0.00042036,6.414e-05,0.0,0 STARLINK-4282,1 53019U 22076AK  24228.42120915  .00006414  00000-0  42036-3 0  9990,2 53019  53.2153 128.6446 0000922  44.4472 315.6594 15.08869413116745,6917.79,95.436,540.293,539.018,0.0
53019.0,STARLINK-4282,PAYLOAD,2024-08-15 22:49:38,15.08843496,0.0001395,53.2164,126.2664,91.1635,268.9517,-0.00025519,-4.347e-05,0.0,0 STARLINK-4282,1 53019U 22076AK  24228.95113445 -.00004347  00000-0 -25519-3 0  9990,2 53019  53.2164 126.2664 0001395  91.1635 268.9517 15.08843496116825,6917.87,95.437,540.7,538.77,0.0
53019.0,STARLINK-4282,PAYLOAD,2024-08-16 00:25:00,15.08843715,0.0001145,53.2156,125.9696,90.0452,270.0671,-0.00026766,-4.546e-05,0.0,0 STARLINK-4282,1 53019U 22076AK  24229.01737197 -.00004546  00000-0 -26766-3 0  9990,2 53019  53.2156 125.9696 0001145  90.0452 270.0671 15.08843715117308,6917.869,95.437,540.526,538.942,0.0
53019.0,STARLINK-4282,PAYLOAD,2024-08-17 03:26:34,15.08859279,0.0001134,53.2144,120.9159,110.8693,249.242,0.00081277,0.00012678,0.0,0 STARLINK-4282,1 53019U 22076AK  24230.14344938  .00012678  00000-0  81277-3 0  9994,2 53019  53.2144 120.9159 0001134 110.8693 249.2420 15.08859279117470,6917.821,95.436,540.471,538.902,0.0
53019.0,STARLINK-4282,PAYLOAD,2024-08-18 01:41:58,15.08838685,0.0001021,53.2152,116.7466,113.7381,246.3719,0.00092995,0.00014543,0.0,0 STARLINK-4282,1 53019U 22076AK  24231.07081517  .00014543  00000-0  92995-3 0  9990,2 53019  53.2152 116.7466 0001021 113.7381 246.3719 15.08838685117617,6917.884,95.438,540.456,539.043,0.0
53019.0,STARLINK-4282,PAYLOAD,2024-08-18 22:21:58,15.08863031,0.0001277,53.215,112.8863,80.5724,279.5413,0.0008857,0.00013845,0.0,0 STARLINK-4282,1 53019U 22076AK  24231.93193027  .00013845  00000-0  88570-3 0  9993,2 53019  53.2150 112.8863 0001277  80.5724 279.5413 15.08863031117272,6917.81,95.436,540.558,538.792,0.0
53019.0,STARLINK-4282,PAYLOAD,2024-08-19 09:29:40,15.08854337,0.0001408,53.2137,110.807,72.2882,287.8264,0.00039385,5.988e-05,0.0,0 STARLINK-4282,1 53019U 22076AK  24232.39560849  .00005988  00000-0  39385-3 0  9993,2 53019  53.2137 110.8070 0001408  72.2882 287.8264 15.08854337117819,6917.837,95.437,540.676,538.728,0.0
53019.0,STARLINK-4282,PAYLOAD,2024-08-19 20:37:23,15.08830109,0.0001641,53.2152,108.7244,78.4676,281.65,-0.00015678,-2.782e-05,0.0,0 STARLINK-4282,1 53019U 22076AK  24232.85929645 -.00002782  00000-0 -15678-3 0  9997,2 53019  53.2152 108.7244 0001641  78.4676 281.6500 15.08830109117886,6917.911,95.438,540.911,538.64,0.0
53019.0,STARLINK-4282,PAYLOAD,2024-08-19 22:12:46,15.08830185,0.0001631,53.2153,108.4268,78.7814,281.3361,-5.094e-05,-1.098e-05,0.0,0 STARLINK-4282,1 53019U 22076AK  24232.92553701 -.00001098  00000-0 -50940-4 0  9992,2 53019  53.2153 108.4268 0001631  78.7814 281.3361 15.08830185117422,6917.91,95.438,540.904,538.647,0.0
53019.0,STARLINK-4282,PAYLOAD,2024-08-20 20:28:10,15.0885476,0.0001589,53.2155,104.2627,84.8949,275.2224,0.001059,0.00016613,0.0,0 STARLINK-4282,1 53019U 22076AK  24233.85289774  .00016613  00000-0  10590-2 0  9993,2 53019  53.2155 104.2627 0001589  84.8949 275.2224 15.08854760118039,6917.835,95.437,540.8,538.601,0.0
53019.0,STARLINK-4282,PAYLOAD,2024-08-20 22:03:33,15.08859259,0.0001589,53.2154,103.9655,83.1578,276.9594,0.0011667,0.00018339,0.0,0 STARLINK-4282,1 53019U 22076AK  24233.91913688  .00018339  00000-0  11667-2 0  9991,2 53019  53.2154 103.9655 0001589  83.1578 276.9594 15.08859259117579,6917.822,95.436,540.786,538.587,0.0
53019.0,STARLINK-4282,PAYLOAD,2024-08-21 20:18:57,15.08844419,0.0001467,53.2158,99.8002,94.0974,266.0186,0.00031614,4.748e-05,0.0,0 STARLINK-4282,1 53019U 22076AK  24234.84649748  .00004748  00000-0  31614-3 0  9991,2 53019  53.2158  99.8002 0001467  94.0974 266.0186 15.08844419117713,6917.867,95.437,540.747,538.717,0.0
53019.0,STARLINK-4282,PAYLOAD,2024-08-21 21:54:20,15.08841454,0.0001587,53.2161,99.5025,100.9752,259.1419,0.00021442,3.126e-05,0.0,0 STARLINK-4282,1 53019U 22076AK  24234.91273781  .00003126  00000-0  21442-3 0  9996,2 53019  53.2161  99.5025 0001587 100.9752 259.1419 15.08841454118194,6917.876,95.437,540.839,538.643,0.0
